IRIDIUM 921 [-]         
1 24873U 97034E   23278.45018651  .00030083  00000+0  11720-2 0  9995
2 24873  86.3873  53.1685 0006558 133.2750 226.9044 15.25819206436036
IRIDIUM 26 [-]          
1 24903U 97043A   23278.77126452  .00000953  00000+0  32136-3 0  9991
2 24903  86.4022  10.9083 0002143  87.3326 272.8116 14.36024101368143
IRIDIUM 22 [-]          
1 24907U 97043E   23278.56124008  .00000921  00000+0  31728-3 0  9998
2 24907  86.4025  14.0281 0002222  93.1765 266.9685 14.34931186367743
DUMMY MASS 1 [-]        
1 24925U 97048A   23278.44629060  .00001139  00000+0  12769-3 0  9994
2 24925  86.3328  62.0931 0007034 166.0836 194.0584 14.85852173412922
DUMMY MASS 2 [-]        
1 24926U 97048B   23278.84574472  .00001093  00000+0  12310-3 0  9996
2 24926  86.3326  63.4078 0007420 177.1615 182.9653 14.85613963413011
IRIDIUM 29 [-]          
1 24944U 97051A   23278.85424376  .00000786  00000+0  26732-3 0  9999
2 24944  86.3977  43.8821 0002336  95.0918 265.0545 14.35391244364474
IRIDIUM 33 [-]          
1 24946U 97051C   23278.44044550  .00000776  00000+0  27036-3 0  9995
2 24946  86.3893  43.3325 0006204 314.2647  45.8039 14.34129498363751
IRIDIUM 28 [-]          
1 24948U 97051E   23278.60811291  .00001097  00000+0  36865-3 0  9996
2 24948  86.3987  41.8579 0001864  82.5621 277.5788 14.36319771364736
